{
    "links": {
        "self": "http://www.neowsapp.com/rest/v1/neo/3836102?api_key=iIulBulltgU6a56xZRHN4H3l9WmuAYTsLGpBGhQ2"
    },
    "id": "3836102",
    "neo_reference_id": "3836102",
    "name": "(2018 VV3)",
    "designation": "2018 VV3",
    "nasa_jpl_url": "http://ssd.jpl.nasa.gov/sbdb.cgi?sstr=3836102",
    "absolute_magnitude_h": 26.2,
    "estimated_diameter": {
        "kilometers": {
            "estimated_diameter_min": 0.0152951935,
            "estimated_diameter_max": 0.0342010925
        },
        "meters": {
            "estimated_diameter_min": 15.2951935344,
            "estimated_diameter_max": 34.201092472
        },
        "miles": {
            "estimated_diameter_min": 0.0095039897,
            "estimated_diameter_max": 0.021251567
        },
        "feet": {
            "estimated_diameter_min": 50.1810827555,
            "estimated_diameter_max": 112.2083122258
        }
    },
    "is_potentially_hazardous_asteroid": false,
    "close_approach_data": [
        {
            "close_approach_date": "2016-11-28",
            "close_approach_date_full": "2016-Nov-28 08:30",
            "epoch_date_close_approach": 1480321800000,
            "relative_velocity": {
                "kilometers_per_second": "4.9234494986",
                "kilometers_per_hour": "17724.41819514",
                "miles_per_hour": "11013.2641835302"
            },
            "miss_distance": {
                "astronomical": "1.7440965979",
                "lunar": "678.4535765831",
                "kilometers": "260913136.120086473",
                "miles": "162123904.9996524074"
            },
            "orbiting_body": "Juptr"
        },
        {
            "close_approach_date": "2018-11-03",
            "close_approach_date_full": "2018-Nov-03 06:41",
            "epoch_date_close_approach": 1541227260000,
            "relative_velocity": {
                "kilometers_per_second": "12.9853551174",
                "kilometers_per_hour": "46747.2784225316",
                "miles_per_hour": "29046.9408620447"
            },
            "miss_distance": {
                "astronomical": "0.0029102906",
                "lunar": "1.1321030434",
                "kilometers": "435373.274841022",
                "miles": "270528.4084172236"
            },
            "orbiting_body": "Earth"
        },
        {
            "close_approach_date": "2018-11-03",
            "close_approach_date_full": "2018-Nov-03 08:11",
            "epoch_date_close_approach": 1541232660000,
            "relative_velocity": {
                "kilometers_per_second": "13.6763667152",
                "kilometers_per_hour": "49234.9201746926",
                "miles_per_hour": "30592.6647052139"
            },
            "miss_distance": {
                "astronomical": "0.0013154613",
                "lunar": "0.5117144457",
                "kilometers": "196790.208547431",
                "miles": "122279.7654033078"
            },
            "orbiting_body": "Moon"
        },
        {
            "close_approach_date": "2199-08-07",
            "close_approach_date_full": "2199-Aug-07 21:58",
            "epoch_date_close_approach": 7245496680000,
            "relative_velocity": {
                "kilometers_per_second": "22.9935300488",
                "kilometers_per_hour": "82776.708175819",
                "miles_per_hour": "51434.2273662471"
            },
            "miss_distance": {
                "astronomical": "0.4837901514",
                "lunar": "188.1943688946",
                "kilometers": "72373976.176417518",
                "miles": "44971103.4582490284"
            },
            "orbiting_body": "Earth"
        }
    ],
    "orbital_data": {
        "orbit_id": "1",
        "orbit_determination_date": "2018-11-09 17:42:05",
        "first_observation_date": "2018-11-04",
        "last_observation_date": "2018-11-08",
        "data_arc_in_days": 4,
        "observations_used": 20,
        "orbit_uncertainty": "8",
        "minimum_orbit_intersection": ".00244048",
        "jupiter_tisserand_invariant": "3.165",
        "epoch_osculation": "2458429.5",
        "eccentricity": ".6122312875915442",
        "semi_major_axis": "2.465122808264949",
        "inclination": "14.4732321728136",
        "ascending_node_longitude": "40.44500651341023",
        "orbital_period": "1413.696773578102",
        "perihelion_distance": ".955897497289616",
        "perihelion_argument": "335.7148400303196",
        "aphelion_distance": "3.974348119240283",
        "perihelion_time": "2458407.081391646630",
        "mean_anomaly": "5.708932182667473",
        "mean_motion": ".2546514972152273",
        "equinox": "J2000",
        "orbit_class": {
            "orbit_class_type": "APO",
            "orbit_class_description": "Near-Earth asteroid orbits which cross the Earth’s orbit similar to that of 1862 Apollo",
            "orbit_class_range": "a (semi-major axis) > 1.0 AU; q (perihelion) < 1.017 AU"
        }
    },
    "is_sentry_object": false
}